start=new Date('2022-06-03T00:00:00.000Z').valueOf();
sats=[{"MEAN_ANOMALY":"298.9121","ECCENTRICITY":"0.00014640","EPOCH":"2022-06-02T14:23:25.302624","CENTER_NAME":"EARTH","NORAD_CAT_ID":"48094","TLE_LINE2":"2 48094  53.0559 229.1388 0001464  61.2015 298.9121 15.06405201 65015","REF_FRAME":"TEME","OBJECT_ID":"2021-027C","OBJECT_NAME":"STARLINK-2412","RA_OF_ASC_NODE":"229.1388","RCS_SIZE":"LARGE","LAUNCH_DATE":"2021-04-07","SEMIMAJOR_AXIS":"6925.333","CLASSIFICATION_TYPE":"U","APOAPSIS":"548.211","PERIAPSIS":"546.184","TIME_SYSTEM":"UTC","MEAN_ELEMENT_THEORY":"SGP4","ARG_OF_PERICENTER":"61.2015","DECAY_DATE":null,"OBJECT_TYPE":"PAYLOAD","MEAN_MOTION_DDOT":"0.0000000000000","SITE":"AFETR","EPHEMERIS_TYPE":"0","FILE":"3477983","ELEMENT_SET_NO":"999","REV_AT_EPOCH":"6501","MEAN_MOTION":"15.06405201","GP_ID":"205211348","BSTAR":"0.00006783800000","MEAN_MOTION_DOT":"0.00000729","PERIOD":"95.592","COUNTRY_CODE":"US","INCLINATION":"53.0559","TLE_LINE1":"1 48094U 21027C   22153.59959841  .00000729  00000-0  67838-4 0  9994"},{"NORAD_CAT_ID":"48095","TLE_LINE2":"2 48095  53.0524 229.3940 0001621  61.6836 298.4317 15.06410029 65010","OBJECT_ID":"2021-027D","REF_FRAME":"TEME","OBJECT_NAME":"STARLINK-2414","RA_OF_ASC_NODE":"229.3940","ECCENTRICITY":"0.00016210","MEAN_ANOMALY":"298.4317","CENTER_NAME":"EARTH","EPOCH":"2022-06-02T12:58:29.713152","TIME_SYSTEM":"UTC","DECAY_DATE":null,"MEAN_MOTION_DDOT":"0.0000000000000","OBJECT_TYPE":"PAYLOAD","ARG_OF_PERICENTER":"61.6836","MEAN_ELEMENT_THEORY":"SGP4","LAUNCH_DATE":"2021-04-07","SEMIMAJOR_AXIS":"6925.318","RCS_SIZE":"MEDIUM","CLASSIFICATION_TYPE":"U","APOAPSIS":"548.305","PERIAPSIS":"546.060","REV_AT_EPOCH":"6501","SITE":"AFETR","EPHEMERIS_TYPE":"0","FILE":"3477482","ELEMENT_SET_NO":"999","MEAN_MOTION_DOT":"0.00002423","COUNTRY_CODE":"US","PERIOD":"95.592","INCLINATION":"53.0524","TLE_LINE1":"1 48095U 21027D   22153.54062168  .00002423  00000-0  18145-3 0  9996","MEAN_MOTION":"15.06410029","GP_ID":"205176768","BSTAR":"0.00018145000000"},{"REV_AT_EPOCH":"6501","ELEMENT_SET_NO":"999","EPHEMERIS_TYPE":"0","SITE":"AFETR","FILE":"3477983","INCLINATION":"53.0534","TLE_LINE1":"1 48096U 21027E   22153.64752748  .00002007  00000-0  15360-3 0  9992","MEAN_MOTION_DOT":"0.00002007","PERIOD":"95.592","COUNTRY_CODE":"US","MEAN_MOTION":"15.06400433","BSTAR":"0.00015360000000","GP_ID":"205212348","REF_FRAME":"TEME","OBJECT_ID":"2021-027E","RA_OF_ASC_NODE":"228.9152","OBJECT_NAME":"STARLINK-2417","NORAD_CAT_ID":"48096","TLE_LINE2":"2 48096  53.0534 228.9152 0001554  58.7598 301.3543 15.06400433 65012","EPOCH":"2022-06-02T15:32:26.374272","CENTER_NAME":"EARTH","MEAN_ANOMALY":"301.3543","ECCENTRICITY":"0.00015540","ARG_OF_PERICENTER":"58.7598","MEAN_ELEMENT_THEORY":"SGP4","DECAY_DATE":null,"MEAN_MOTION_DDOT":"0.0000000000000","OBJECT_TYPE":"PAYLOAD","TIME_SYSTEM":"UTC","PERIAPSIS":"546.136","RCS_SIZE":"LARGE","LAUNCH_DATE":"2021-04-07","CLASSIFICATION_TYPE":"U","SEMIMAJOR_AXIS":"6925.347","APOAPSIS":"548.288"},{"FILE":"3477983","EPHEMERIS_TYPE":"0","SITE":"AFETR","ELEMENT_SET_NO":"999","REV_AT_EPOCH":"6529","GP_ID":"205210598","BSTAR":"0.00006614700000","MEAN_MOTION":"15.06405565","PERIOD":"95.592","COUNTRY_CODE":"US","MEAN_MOTION_DOT":"0.00000704","TLE_LINE1":"1 48097U 21027F   22153.62724433  .00000704  00000-0  66147-4 0  9993","INCLINATION":"53.0525","MEAN_ANOMALY":"286.5162","ECCENTRICITY":"0.00015310","EPOCH":"2022-06-02T15:03:13.910112","CENTER_NAME":"EARTH","TLE_LINE2":"2 48097  53.0525 209.0159 0001531  73.5995 286.5162 15.06405565 65293","NORAD_CAT_ID":"48097","OBJECT_NAME":"STARLINK-2418","RA_OF_ASC_NODE":"209.0159","REF_FRAME":"TEME","OBJECT_ID":"2021-027F","APOAPSIS":"548.257","RCS_SIZE":"LARGE","LAUNCH_DATE":"2021-04-07","CLASSIFICATION_TYPE":"U","SEMIMAJOR_AXIS":"6925.332","PERIAPSIS":"546.136","TIME_SYSTEM":"UTC","MEAN_ELEMENT_THEORY":"SGP4","ARG_OF_PERICENTER":"73.5995","OBJECT_TYPE":"PAYLOAD","DECAY_DATE":null,"MEAN_MOTION_DDOT":"0.0000000000000"},{"NORAD_CAT_ID":"48098","TLE_LINE2":"2 48098  53.0544 217.9262 0001486  59.4980 300.6156 15.06394381 65186","REF_FRAME":"TEME","OBJECT_ID":"2021-027G","RA_OF_ASC_NODE":"217.9262","OBJECT_NAME":"STARLINK-2421","MEAN_ANOMALY":"300.6156","ECCENTRICITY":"0.00014860","CENTER_NAME":"EARTH","EPOCH":"2022-06-02T20:52:14.041344","TIME_SYSTEM":"UTC","DECAY_DATE":null,"OBJECT_TYPE":"PAYLOAD","MEAN_MOTION_DDOT":"0.0000000000000","ARG_OF_PERICENTER":"59.4980","MEAN_ELEMENT_THEORY":"SGP4","LAUNCH_DATE":"2021-04-07","SEMIMAJOR_AXIS":"6925.366","RCS_SIZE":"LARGE","CLASSIFICATION_TYPE":"U","APOAPSIS":"548.260","PERIAPSIS":"546.202","REV_AT_EPOCH":"6518","EPHEMERIS_TYPE":"0","SITE":"AFETR","FILE":"3477983","ELEMENT_SET_NO":"999","MEAN_MOTION_DOT":"-0.00000969","COUNTRY_CODE":"US","PERIOD":"95.592","INCLINATION":"53.0544","TLE_LINE1":"1 48098U 21027G   22153.86960696 -.00000969  00000-0 -46197-4 0  9991","MEAN_MOTION":"15.06394381","GP_ID":"205210848","BSTAR":"-0.00004619700000"},{"REV_AT_EPOCH":"6459","SITE":"AFETR","EPHEMERIS_TYPE":"0","FILE":"3477632","ELEMENT_SET_NO":"999","MEAN_MOTION_DOT":"0.00001045","COUNTRY_CODE":"US","PERIOD":"95.592","INCLINATION":"53.0542","TLE_LINE1":"1 48099U 21027H   22153.52589425  .00001045  00000-0  89063-4 0  9995","MEAN_MOTION":"15.06394600","BSTAR":"0.00008906300000","GP_ID":"205182130","NORAD_CAT_ID":"48099","TLE_LINE2":"2 48099  53.0542 229.4673 0001613  67.7023 292.4136 15.06394600 64595","REF_FRAME":"TEME","OBJECT_ID":"2021-027H","OBJECT_NAME":"STARLINK-2428","RA_OF_ASC_NODE":"229.4673","ECCENTRICITY":"0.00016130","MEAN_ANOMALY":"292.4136","CENTER_NAME":"EARTH","EPOCH":"2022-06-02T12:37:17.263200","TIME_SYSTEM":"UTC","OBJECT_TYPE":"PAYLOAD","DECAY_DATE":null,"MEAN_MOTION_DDOT":"0.0000000000000","ARG_OF_PERICENTER":"67.7023","MEAN_ELEMENT_THEORY":"SGP4","RCS_SIZE":"LARGE","LAUNCH_DATE":"2021-04-07","SEMIMAJOR_AXIS":"6925.365","CLASSIFICATION_TYPE":"U","APOAPSIS":"548.347","PERIAPSIS":"546.113"},{"OBJECT_ID":"2021-027J","REF_FRAME":"TEME","OBJECT_NAME":"STARLINK-2430","RA_OF_ASC_NODE":"209.3436","TLE_LINE2":"2 48100  53.0536 209.3436 0001503  54.1135 305.9994 15.06407765 65283","NORAD_CAT_ID":"48100","CENTER_NAME":"EARTH","EPOCH":"2022-06-02T13:17:05.971776","ECCENTRICITY":"0.00015030","MEAN_ANOMALY":"305.9994","OBJECT_TYPE":"PAYLOAD","DECAY_DATE":null,"MEAN_MOTION_DDOT":"0.0000000000000","MEAN_ELEMENT_THEORY":"SGP4","ARG_OF_PERICENTER":"54.1135","TIME_SYSTEM":"UTC","PERIAPSIS":"546.149","RCS_SIZE":"MEDIUM","LAUNCH_DATE":"2021-04-07","SEMIMAJOR_AXIS":"6925.325","CLASSIFICATION_TYPE":"U","APOAPSIS":"548.231","REV_AT_EPOCH":"6528","ELEMENT_SET_NO":"999","SITE":"AFETR","EPHEMERIS_TYPE":"0","FILE":"3477482","INCLINATION":"53.0536","TLE_LINE1":"1 48100U 21027J   22153.55354134  .00004122  00000-0  29537-3 0  9996","MEAN_MOTION_DOT":"0.00004122","COUNTRY_CODE":"US","PERIOD":"95.592","MEAN_MOTION":"15.06407765","GP_ID":"205176519","BSTAR":"0.00029537000000"},{"TIME_SYSTEM":"UTC","ARG_OF_PERICENTER":"59.3266","MEAN_ELEMENT_THEORY":"SGP4","OBJECT_TYPE":"PAYLOAD","DECAY_DATE":null,"MEAN_MOTION_DDOT":"0.0000000000000","RCS_SIZE":"LARGE","LAUNCH_DATE":"2021-04-07","SEMIMAJOR_AXIS":"6925.333","CLASSIFICATION_TYPE":"U","APOAPSIS":"548.189","PERIAPSIS":"546.206","TLE_LINE2":"2 48101  53.0549 217.9315 0001432  59.3266 300.7864 15.06405160 65198","NORAD_CAT_ID":"48101","REF_FRAME":"TEME","OBJECT_ID":"2021-027K","RA_OF_ASC_NODE":"217.9315","OBJECT_NAME":"STARLINK-2436","ECCENTRICITY":"0.00014320","MEAN_ANOMALY":"300.7864","EPOCH":"2022-06-02T20:50:51.575136","CENTER_NAME":"EARTH","MEAN_MOTION_DOT":"0.00000178","PERIOD":"95.592","COUNTRY_CODE":"US","INCLINATION":"53.0549","TLE_LINE1":"1 48101U 21027K   22153.86865249  .00000178  00000-0  30840-4 0  9992","MEAN_MOTION":"15.06405160","GP_ID":"205211099","BSTAR":"0.00003084000000","REV_AT_EPOCH":"6519","EPHEMERIS_TYPE":"0","SITE":"AFETR","FILE":"3477983","ELEMENT_SET_NO":"999"},{"MEAN_ELEMENT_THEORY":"SGP4","ARG_OF_PERICENTER":"53.2355","DECAY_DATE":null,"OBJECT_TYPE":"PAYLOAD","MEAN_MOTION_DDOT":"0.0000000000000","TIME_SYSTEM":"UTC","PERIAPSIS":"546.150","APOAPSIS":"548.319","LAUNCH_DATE":"2021-04-07","SEMIMAJOR_AXIS":"6925.369","RCS_SIZE":"LARGE","CLASSIFICATION_TYPE":"U","OBJECT_NAME":"STARLINK-2437","RA_OF_ASC_NODE":"208.0376","OBJECT_ID":"2021-027L","REF_FRAME":"TEME","TLE_LINE2":"2 48102  53.0572 208.0376 0001566  53.2355 306.8778 15.06393266 65322","NORAD_CAT_ID":"48102","EPOCH":"2022-06-02T20:16:24.315168","CENTER_NAME":"EARTH","ECCENTRICITY":"0.00015660","MEAN_ANOMALY":"306.8778","TLE_LINE1":"1 48102U 21027L   22153.84472587 -.00000092  00000-0  12719-4 0  9991","INCLINATION":"53.0572","PERIOD":"95.593","COUNTRY_CODE":"US","MEAN_MOTION_DOT":"-0.00000092","GP_ID":"205211349","BSTAR":"0.00001271900000","MEAN_MOTION":"15.06393266","REV_AT_EPOCH":"6532","ELEMENT_SET_NO":"999","FILE":"3477983","EPHEMERIS_TYPE":"0","SITE":"AFETR"},{"NORAD_CAT_ID":"48103","TLE_LINE2":"2 48103  53.0550 208.0020 0001666  67.1944 292.9221 15.06405185 65326","OBJECT_ID":"2021-027M","REF_FRAME":"TEME","OBJECT_NAME":"STARLINK-2438","RA_OF_ASC_NODE":"208.0020","ECCENTRICITY":"0.00016660","MEAN_ANOMALY":"292.9221","CENTER_NAME":"EARTH","EPOCH":"2022-06-02T20:30:57.260160","TIME_SYSTEM":"UTC","MEAN_MOTION_DDOT":"0.0000000000000","DECAY_DATE":null,"OBJECT_TYPE":"PAYLOAD","ARG_OF_PERICENTER":"67.1944","MEAN_ELEMENT_THEORY":"SGP4","LAUNCH_DATE":"2021-04-07","SEMIMAJOR_AXIS":"6925.333","RCS_SIZE":"LARGE","CLASSIFICATION_TYPE":"U","APOAPSIS":"548.351","PERIAPSIS":"546.044","REV_AT_EPOCH":"6532","EPHEMERIS_TYPE":"0","SITE":"AFETR","FILE":"3477983","ELEMENT_SET_NO":"999","MEAN_MOTION_DOT":"0.00000288","COUNTRY_CODE":"US","PERIOD":"95.592","INCLINATION":"53.0550","TLE_LINE1":"1 48103U 21027M   22153.85482940  .00000288  00000-0  38254-4 0  9995","MEAN_MOTION":"15.06405185","GP_ID":"205212101","BSTAR":"0.00003825400000"}];
